COSMOS 2251 DEB         
1 34721U 93036YP  17346.31426372  .00000675  00000-0  47505-3 0  9999
2 34721  73.9271 297.3091 0235039  97.3433  52.0961 13.87405499445466
